H1 CPF 01  gfz 2021 03 02 01  5611 tandemx   
H2 1003001  6202 36605    2021 03 02 00 59 42 2021 03 07 00 00 42   120 1 1  0 0 0
H9
10 0 59275  53262.000000  0    4568657.728   5156772.261    -55772.045
10 0 59275  53382.000000  0    4664775.928   4997303.387    847308.803
10 0 59275  53502.000000  0    4675788.273   4749539.206   1735472.519
10 0 59275  53622.000000  0    4599987.446   4419294.310   2593075.266
10 0 59275  53742.000000  0    4437314.409   4013858.181   3405012.248
10 0 59275  53862.000000  0    4189380.834   3541833.860   4156991.105
10 0 59275  53982.000000  0    3859458.084   3012952.267   4835786.848
10 0 59275  54102.000000  0    3452434.270   2437868.211   5429476.877
10 0 59275  54222.000000  0    2974735.343   1827940.164   5927649.052
10 0 59275  54342.000000  0    2434218.649   1195002.584   6321578.776
10 0 59275  54462.000000  0    1840039.411    551133.140   6604375.645
10 0 59275  54582.000000  0    1202492.361    -91577.645   6771097.468
10 0 59275  54702.000000  0     532831.379   -721252.386   6818833.115
10 0 59275  54822.000000  0    -156930.143  -1326446.918   6746750.294
10 0 59275  54942.000000  0    -854235.019  -1896357.965   6556108.577
10 0 59275  55062.000000  0   -1546210.461  -2421016.120   6250237.434
10 0 59275  55182.000000  0   -2219903.411  -2891459.899   5834480.877
10 0 59275  55302.000000  0   -2862522.079  -3299890.817   5316111.946
10 0 59275  55422.000000  0   -3461682.654  -3639807.293   4704212.779
10 0 59275  55542.000000  0   -4005652.764  -3906111.825   4009519.255
10 0 59275  55662.000000  0   -4483585.280  -4095190.452   3244235.639
10 0 59275  55782.000000  0   -4885739.205  -4204963.217   2421822.154
10 0 59275  55902.000000  0   -5203683.785  -4234904.759   1556757.119
10 0 59275  56022.000000  0   -5430478.908  -4186032.323    664276.827
10 0 59275  56142.000000  0   -5560827.362  -4060861.848   -239899.751
10 0 59275  56262.000000  0   -5591195.140  -3863333.519  -1139856.527
10 0 59275  56382.000000  0   -5519896.059  -3598707.964  -2019770.578
10 0 59275  56502.000000  0   -5347137.205  -3273435.173  -2864198.575
10 0 59275  56622.000000  0   -5075026.397  -2895001.942  -3658352.487
10 0 59275  56742.000000  0   -4707542.234  -2471761.132  -4388359.931
10 0 59275  56862.000000  0   -4250467.888  -2012747.563  -5041504.517
10 0 59275  56982.000000  0   -3711290.500  -1527485.219  -5606441.810
10 0 59275  57102.000000  0   -3099069.566  -1025789.672  -6073387.645
10 0 59275  57222.000000  0   -2424277.857   -517570.651  -6434276.537
10 0 59275  57342.000000  0   -1698617.774    -12638.957  -6682889.471
10 0 59275  57462.000000  0    -934817.124    479478.520  -6814949.040
10 0 59275  57582.000000  0    -146409.588    949713.279  -6828184.598
10 0 59275  57702.000000  0     652499.251   1389617.962  -6722366.587
10 0 59275  57822.000000  0    1447477.125   1791513.468  -6499312.108
10 0 59275  57942.000000  0    2224020.804   2148621.353  -6162857.910
10 0 59275  58062.000000  0    2967816.032   2455177.302  -5718801.391
10 0 59275  58182.000000  0    3664997.954   2706524.339  -5174809.588
10 0 59275  58302.000000  0    4302408.912   2899185.020  -4540299.276
10 0 59275  58422.000000  0    4867850.806   3030911.457  -3826285.209
10 0 59275  58542.000000  0    5350324.445   3100710.545  -3045197.417
10 0 59275  58662.000000  0    5740250.797   3108844.853  -2210672.144
10 0 59275  58782.000000  0    6029671.269   3056808.651  -1337316.647
10 0 59275  58902.000000  0    6212418.240   2947277.006   -440452.083
10 0 59275  59022.000000  0    6284252.969   2784030.790    464159.744
10 0 59275  59142.000000  0    6242965.328   2571856.842   1360600.608
10 0 59275  59262.000000  0    6088433.914   2316429.253   2233083.279
10 0 59275  59382.000000  0    5822644.739   2024172.656   3066239.110
10 0 59275  59502.000000  0    5449665.876   1702110.215   3845397.073
10 0 59275  59622.000000  0    4975579.903   1357701.465   4556848.246
10 0 59275  59742.000000  0    4408376.249    998674.020   5188088.466
10 0 59275  59862.000000  0    3757808.939    632853.484   5728038.232
10 0 59275  59982.000000  0    3035218.465    267994.787   6167234.927
10 0 59275  60102.000000  0    2253325.978    -88379.319   6497991.547
10 0 59275  60222.000000  0    1426005.278   -429130.545   6714525.390
10 0 59275  60342.000000  0     568033.447   -747646.485   6813054.991
10 0 59275  60462.000000  0    -305175.453  -1037967.929   6791861.488
10 0 59275  60582.000000  0   -1177847.053  -1294899.822   6651315.922
10 0 59275  60702.000000  0   -2034130.675  -1514104.409   6393872.059
10 0 59275  60822.000000  0   -2858385.159  -1692173.848   6024025.578
10 0 59275  60942.000000  0   -3635464.507  -1826682.906   5548243.080
10 0 59275  61062.000000  0   -4351001.272  -1916221.948   4974855.842
10 0 59275  61182.000000  0   -4991678.141  -1960408.054   4313918.832
10 0 59275  61302.000000  0   -5545483.166  -1959873.276   3577037.712
10 0 59275  61422.000000  0   -6001942.576  -1916230.250   2777167.322
10 0 59275  61542.000000  0   -6352327.852  -1832017.243   1928385.152
10 0 59275  61662.000000  0   -6589833.179  -1710623.443   1045640.290
10 0 59275  61782.000000  0   -6709713.745  -1556194.753    144482.455
10 0 59275  61902.000000  0   -6709383.448  -1373522.875   -759220.097
10 0 59275  62022.000000  0   -6588468.746  -1167920.845  -1649569.466
10 0 59275  62142.000000  0   -6348817.466   -945088.563  -2510925.947
10 0 59275  62262.000000  0   -5994463.625   -710972.414  -3328188.864
10 0 59275  62382.000000  0   -5531548.891   -471621.435  -4087065.227
10 0 59275  62502.000000  0   -4968203.527   -233043.193  -4774319.547
10 0 59275  62622.000000  0   -4314390.771     -1064.311  -5378000.466
10 0 59275  62742.000000  0   -3581718.766    218801.254  -5887641.432
10 0 59275  62862.000000  0   -2783224.570    421473.769  -6294430.971
10 0 59275  62982.000000  0   -1933137.530    602416.544  -6591352.435
10 0 59275  63102.000000  0   -1046624.750    757729.880  -6773294.360
10 0 59275  63222.000000  0    -139522.953    884229.971  -6837128.304
10 0 59275  63342.000000  0     771937.439    979510.622  -6781755.534
10 0 59275  63462.000000  0    1671414.715   1041986.892  -6608126.366
10 0 59275  63582.000000  0    2542743.327   1070921.373  -6319226.506
10 0 59275  63702.000000  0    3370219.270   1066431.841  -5920030.888
10 0 59275  63822.000000  0    4138879.232   1029479.906  -5417425.753
10 0 59275  63942.000000  0    4834770.678    961840.918  -4820101.635
10 0 59275  64062.000000  0    5445209.708    866056.052  -4138414.729
10 0 59275  64182.000000  0    5959019.837    745366.711  -3384217.179
10 0 59275  64302.000000  0    6366746.643    603632.181  -2570659.272
10 0 59275  64422.000000  0    6660844.622    445232.701  -1711965.543
10 0 59275  64542.000000  0    6835830.217    274959.159   -823186.087
10 0 59275  64662.000000  0    6888394.329     97892.349     80070.667
10 0 59275  64782.000000  0    6817473.531    -80724.708    981917.384
10 0 59275  64902.000000  0    6624277.064   -255619.668   1866475.415
10 0 59275  65022.000000  0    6312267.676   -421624.315   2718163.881
10 0 59275  65142.000000  0    5887095.658   -573805.747   3521983.171
10 0 59275  65262.000000  0    5356489.042   -707591.100   4263784.684
10 0 59275  65382.000000  0    4730105.663   -818883.319   4930523.997
10 0 59275  65502.000000  0    4019346.365   -904165.626   5510491.652
10 0 59275  65622.000000  0    3237137.093   -960590.083   5993516.050
10 0 59275  65742.000000  0    2397685.612   -986050.847   6371137.422
10 0 59275  65862.000000  0    1516217.754   -979239.865   6636750.268
10 0 59275  65982.000000  0     608696.918   -939684.304   6785714.235
10 0 59275  66102.000000  0    -308467.722   -867764.185   6815429.393
10 0 59275  66222.000000  0   -1218717.596   -764710.899   6725377.492
10 0 59275  66342.000000  0   -2105642.307   -632586.219   6517130.023
10 0 59275  66462.000000  0   -2953273.943   -474241.851   6194322.526
10 0 59275  66582.000000  0   -3746374.818   -293260.393   5762596.388
10 0 59275  66702.000000  0   -4470714.972    -93878.753   5229506.745
10 0 59275  66822.000000  0   -5113333.717    119104.826   4604396.100
10 0 59275  66942.000000  0   -5662779.509    340438.117   3898235.234
10 0 59275  67062.000000  0   -6109322.874    564535.201   3123433.494
10 0 59275  67182.000000  0   -6445138.526    785606.945   2293622.276
10 0 59275  67302.000000  0   -6664452.187    997798.742   1423413.032
10 0 59275  67422.000000  0   -6763648.085   1195331.623    528135.013
10 0 59275  67542.000000  0   -6741333.450   1372643.886   -376442.952
10 0 59275  67662.000000  0   -6598356.915   1524529.102  -1274399.648
10 0 59275  67782.000000  0   -6337781.712   1646266.477  -2149949.837
10 0 59275  67902.000000  0   -5964816.048   1733741.970  -2987729.038
10 0 59275  68022.000000  0   -5486699.682   1783555.809  -3773069.634
10 0 59275  68142.000000  0   -4912550.919   1793112.985  -4492259.194
10 0 59275  68262.000000  0   -4253180.240   1760696.063  -5132776.807
10 0 59275  68382.000000  0   -3520875.511   1685518.620  -5683503.844
10 0 59275  68502.000000  0   -2729165.318   1567758.737  -6134907.015
10 0 59275  68622.000000  0   -1892564.478   1408571.708  -6479193.037
10 0 59275  68742.000000  0   -1026305.486   1210082.699  -6710431.294
10 0 59275  68862.000000  0    -146063.884    975358.819  -6824644.382
10 0 59275  68982.000000  0     732318.725    708362.443  -6819868.274
10 0 59275  69102.000000  0    1593112.196    413885.821  -6696184.677
10 0 59275  69222.000000  0    2420974.255     97466.867  -6455719.910
10 0 59275  69342.000000  0    3201217.929   -234711.509  -6102612.292
10 0 59275  69462.000000  0    3920069.164   -575937.866  -5642947.897
10 0 59275  69582.000000  0    4564908.237   -919102.616  -5084665.663
10 0 59275  69702.000000  0    5124495.315  -1256841.065  -4437433.042
99
